[{"OBJECT_NAME":"SHIJIAN-6 05A (SJ-6 05A)","OBJECT_ID":"2021-122A","EPOCH":"2026-03-09T21:12:10.842048","MEAN_MOTION":14.99085264,"ECCENTRICITY":0.0003221,"INCLINATION":97.4012,"RA_OF_ASC_NODE":42.3306,"ARG_OF_PERICENTER":76.6317,"MEAN_ANOMALY":283.5266,"EPHEMERIS_TYPE":0,"CLASSIFICATION_TYPE":"U","NORAD_CAT_ID":49961,"ELEMENT_SET_NO":999,"REV_AT_EPOCH":23387,"BSTAR":0.00027617,"MEAN_MOTION_DOT":3.299e-5,"MEAN_MOTION_DDOT":0},{"OBJECT_NAME":"STARLINK-6345","OBJECT_ID":"2023-078Z","EPOCH":"2026-03-09T22:41:44.272320","MEAN_MOTION":14.98331684,"ECCENTRICITY":0.00030473,"INCLINATION":69.9996,"RA_OF_ASC_NODE":303.8551,"ARG_OF_PERICENTER":265.9913,"MEAN_ANOMALY":94.0898,"EPHEMERIS_TYPE":0,"CLASSIFICATION_TYPE":"U","NORAD_CAT_ID":56790,"ELEMENT_SET_NO":999,"REV_AT_EPOCH":15370,"BSTAR":-4.973511e-6,"MEAN_MOTION_DOT":-1.52e-6,"MEAN_MOTION_DDOT":0}]
